P/2019 GG21 (PANSTARRS),e,6.0857,340.5626,208.5897,7.468475,0.0482899,0.47168701,94.7115,09/21.0/2024,2000,g 12.0,4.0
# From MPEC 2022-M21
C/2019 H1 (NEOWISE),e,104.3714,269.3068,19.2782,235.0912,0.0002734,0.99216677,0.0000,04/27.4556/2019,2000,g 15.5,4.0
# From MPEC 2023-A50
C/2019 J1 (Lemmon),e,24.5263,98.2211,167.6344,67.05467,0.0017950,0.96294521,3.5803,09/21.0/2024,2000,g 12.0,4.0
# From MPEC 2021-R75
C/2019 J2 (Palomar),e,105.2423,25.5182,98.6025,160.7202,0.0004837,0.98931485,0.0000,07/20.8507/2019,2000,g 13.0,4.0
# From MPC117071
C/2019 J3 (ATLAS),h,08/02.3413/2019,131.3031,270.6483,16.5373,1.000207,2.364466,2000,13.5,4.0
# From MPEC 2022-M21
C/2019 JU6 (ATLAS),h,06/02.7377/2019,148.3181,21.7346,94.8711,1.000009,2.036092,2000,14.5,4.0
# From MPEC 2022-O08
C/2019 K1 (ATLAS),e,87.0147,73.3082,265.7574,3864,0.0000041,0.99947773,0.0000,02/11.6704/2020,2000,g 10.0,4.0
# From MPC119997
C/2019 K4 (Ye),e,105.2941,180.2301,139.9884,1560,0.0000160,0.99854181,0.0000,06/15.2630/2019,2000,g 12.5,4.0
# From MPEC 2021-P47
C/2019 K5 (Young),e,15.3045,177.2290,175.1523,169.6066,0.0004462,0.98790787,0.0000,06/22.1497/2019,2000,g 13.0,4.0
# From MPEC 2021-P47
C/2019 K6 (PANSTARRS),e,132.3815,42.9971,187.4835,1075,0.0000280,0.99635419,0.0000,05/19.2020/2020,2000,g 11.5,4.0
# From MPEC 2024-GJ3
C/2019 K7 (Smith),h,06/17.4964/2020,103.4972,308.0151,27.3917,1.000764,4.476703,2000,6.0,4.0
# From MPEC 2021-R75
C/2019 K8 (ATLAS),e,93.0739,291.0041,85.3627,1938,0.0000116,0.99835072,0.0000,07/20.9575/2019,2000,g 11.5,4.0
# From MPEC 2023-A50
C/2019 L1 (PANSTARRS),e,9.9740,254.4273,50.0441,9.827208,0.0319933,0.70448857,59.8404,09/21.0/2024,2000,g 13.5,4.0
# From MPC115886
C/2019 L2 (NEOWISE),e,152.1813,12.5659,18.8640,25.13235,0.0078227,0.93537185,15.6290,09/21.0/2024,2000,g 16.0,4.0
# From MPEC 2024-GJ3
P/2019 LD2 (ATLAS),e,11.5995,179.2495,117.4254,5.187477,0.0834199,0.12835590,140.5632,09/21.0/2024,2000,g  8.5,4.0
# From MPEC 2024-P23
C/2019 L3 (ATLAS),h,01/09.9441/2022,48.3445,290.7354,171.6919,1.002769,3.556063,2000,4.5,4.0
# From MPEC 2020-K19
P/2019 LM4 (Palomar),e,36.4182,72.8430,68.2558,5.703370,0.0723614,0.58566993,139.0152,09/21.0/2024,2000,g  9.5,4.0
# From MPC118095
C/2019 LB7 (Kleyna),e,164.2856,3.9470,336.7144,34.92885,0.0047745,0.92854389,9.5737,09/21.0/2024,2000,g 17.0,4.0
# From MPEC 2024-Q25
P/2019 M2 (ATLAS),e,12.2662,307.6079,332.5227,3.030194,0.1868523,0.64729640,358.6572,09/21.0/2024,2000,g 17.5,4.0
# From MPC118095
C/2019 M3 (ATLAS),e,99.5990,155.0017,87.9287,4715,0.0000030,0.99948570,0.0000,12/31.2975/2018,2000,g 12.2,4.0
# From MPEC 2023-JA2
C/2019 M4 (TESS),h,09/10.8836/2019,65.6797,52.6485,260.3624,1.001588,9.190905,2000,5.0,4.0
# From MPEC 2023-C45
C/2019 N1 (ATLAS),e,82.4741,13.5443,193.3610,1060,0.0000286,0.99839261,0.0000,11/30.7381/2020,2000,g  7.5,4.0
# From MPEC 2023-CD8
A/2019 N2,e,89.3353,276.2042,347.1266,1304,0.0000209,0.99850931,0.0000,08/22.5797/2019,2000,g 12.5,2.0
# From MPEC 2022-A21
C/2019 NJ3 (Lemmon),h,10/22.6486/2020,99.3680,142.4879,246.8877,1.001810,4.363136,2000,9.0,4.0
# From MPEC 2024-R10
C/2019 O2 (PANSTARRS),e,93.3104,48.2588,129.5955,58.52779,0.0022012,0.83457525,1.1746,09/21.0/2024,2000,g  5.0,4.0
# From MPEC 2024-PC5
C/2019 O3 (Palomar),h,03/09.2538/2021,89.8052,300.4612,60.1234,1.003727,8.821291,2000,3.5,4.0
# From MPEC 2021-P47
A/2019 O4,e,115.0462,354.9287,61.8556,33.26505,0.0051371,0.89043100,8.6505,09/21.0/2024,2000,g 15.5,2.0
# From MPEC 2024-EF7
C/2019 Q1 (Lemmon),h,07/21.6857/2020,155.7294,42.4588,56.2539,1.001998,5.004907,2000,8.5,4.0
# From MPC117072
A/2019 Q2,e,159.0004,188.0704,176.4800,58.57826,0.0021984,0.97843555,0.0000,07/22.9196/2019,2000,g 18.0,2.0
# From MPC117072
P/2019 S2 (PANSTARRS),e,10.4640,93.1825,217.0361,4.746039,0.0953251,0.20484616,194.5906,09/21.0/2024,2000,g 13.5,4.0
# From MPEC 2022-CN4
P/2019 S3 (PANSTARRS),e,8.6935,150.1524,213.0811,3.414995,0.1561777,0.47090226,289.0782,09/21.0/2024,2000,g 18.3,4.0
# From MPEC 2021-S45
C/2019 S4 (Lemmon),e,92.1081,63.1584,71.3731,243.6920,0.0002591,0.98588026,0.0000,04/08.7912/2020,2000,g 11.0,4.0
# From MPEC 2023-N01
A/2019 T1,e,120.8485,6.9404,91.0264,38.82850,0.0040736,0.88983571,5.4788,09/21.0/2024,2000,g 13.0,2.0
# From MPEC 2023-R20
C/2019 T2 (Lemmon),e,111.4145,155.6565,239.4119,4620,0.0000031,0.99942762,0.0000,04/22.6697/2021,2000,g  9.0,4.0
# From MPEC 2023-UR6
C/2019 T3 (ATLAS),e,121.8543,139.5357,112.4726,3588,0.0000046,0.99834057,0.0000,03/04.4076/2021,2000,g  6.8,4.0
# From MPEC 2024-RQ6
C/2019 T4 (ATLAS),e,53.6272,199.9254,351.1182,881.5518,0.0000377,0.99519114,0.0000,06/08.6641/2022,2000,g  5.0,4.0
# From MPEC 2021-P47
P/2019 T5 (ATLAS),e,33.4991,247.6111,189.5983,8.003693,0.0435280,0.80983301,81.6602,09/21.0/2024,2000,g 15.0,4.0
# From MPEC 2021-P47
P/2019 T6 (PANSTARRS),e,18.7002,71.2437,329.0359,5.441034,0.0776572,0.62285335,138.0682,09/21.0/2024,2000,g 15.5,4.0
# From MPC118096
P/2019 U4 (PANSTARRS),e,11.6969,200.0140,181.0597,3.519452,0.1492765,0.47589536,272.7597,09/21.0/2024,2000,g 19.0,4.0
# From MPEC 2024-RQ6
C/2019 U5 (PANSTARRS),h,03/29.6297/2023,113.5131,2.6269,181.4615,1.000653,3.623859,2000,4.5,4.0
# From MPEC 2022-H04
C/2019 U6 (Lemmon),e,60.9671,235.7864,329.4691,312.2131,0.0001787,0.99708706,0.0000,06/18.2527/2020,2000,g 10.0,4.0
# From MPEC 2022-N37
C/2019 V1 (Borisov),e,61.9445,83.1488,51.1763,2028,0.0000108,0.99847490,0.0000,07/17.0467/2020,2000,g 11.0,4.0
# From MPEC 2022-L66
P/2019 V2 (Groeller),e,11.8070,189.1634,335.6296,7.495026,0.0480335,0.33151588,68.9401,09/21.0/2024,2000,g 10.0,4.0
# From MPEC 2023-A50
P/2019 W1 (PANSTARRS),e,23.4721,35.3729,18.8312,4.548660,0.1015965,0.26730357,199.1183,09/21.0/2024,2000,g 12.9,4.0
# From MPEC 2021-P47
P/2019 X1 (Pruyne),e,10.2490,43.6798,36.9013,6.177130,0.0641984,0.30396956,121.0850,09/21.0/2024,2000,g 10.4,4.0
# From MPEC 2020-C98
P/2019 X2 (Pan-STARRS),e,15.8953,250.8401,213.4709,3.635255,0.1422007,0.50029512,248.3267,09/21.0/2024,2000,g 18.0,4.0
# From MPC119999
C/2019 Y1 (ATLAS),e,73.3484,31.5225,57.9067,87.66148,0.0012009,0.99056481,0.0000,03/16.7772/2020,2000,g 13.7,4.0
# From MPEC 2020-K19
P/2019 Y2 (Fuls),e,4.8766,80.2422,93.3540,3.488178,0.1512886,0.37650794,258.1710,09/21.0/2024,2000,g  9.0,4.0
# From MPEC 2020-C98
P/2019 Y3 (Catalina),e,24.5977,139.2930,2.5690,3.015390,0.1882300,0.69115562,329.2855,09/21.0/2024,2000,g 18.5,4.0
# From MPEC 2024-A43
C/2019 Y4 (ATLAS),e,45.0256,120.7513,177.4320,345.1708,0.0001537,0.99925610,0.0000,05/30.2613/2020,2000,g 11.8,6.0
# From MPEC 2020-L06
C/2019 Y4-A (ATLAS),h,05/30.3021/2020,45.4634,121.1167,177.2652,1.001395,0.254933,2000,11.6,6.0
# From MPEC 2023-J29
C/2019 Y4-B (ATLAS),e,45.1549,120.8587,177.3762,21431,0.0000003,0.99998804,0.0000,05/30.2719/2020,2000,g 12.1,6.0
# From MPEC 2020-L06
C/2019 Y4-C (ATLAS),h,05/30.2542/2020,45.2466,120.8439,177.2983,1.002122,0.256008,2000,12.7,6.0
# From MPEC 2020-L06
C/2019 Y4-D (ATLAS),e,45.2966,121.2098,177.4387,67.86569,0.0017629,0.99623796,0.0000,05/30.3673/2020,2000,g 12.5,6.0
# From MPEC 2023-A50
C/2019 Y5 (PANSTARRS),e,82.7627,51.7519,303.6287,705.3241,0.0000526,0.99301236,0.0000,08/17.1451/2019,2000,g 11.0,4.0
# From MPEC 2023-A50
A/2020 A1,e,149.0324,119.1103,302.4129,25.49903,0.0076545,0.93457924,13.4405,09/21.0/2024,2000,g 18.0,2.0
# From MPEC 2022-YN2
C/2020 A2 (Iwamoto),e,120.5381,286.2199,68.0228,1090,0.0000274,0.99910614,0.0000,01/07.8777/2020,2000,g 13.5,4.0
# From MPEC 2023-A50
C/2020 A3 (ATLAS),e,146.6355,120.8026,268.2763,18220,0.0000004,0.99968419,0.0000,06/27.9505/2019,2000,g  8.0,4.0
# From MPEC 2022-P91
P/2020 A4 (PANSTARRS-Lemmon),e,24.9966,312.3177,144.8344,8.198550,0.0419854,0.65443725,74.0220,09/21.0/2024,2000,g 15.0,4.0
# From MPEC 2020-N08
A/2020 B1,e,18.5311,309.8611,154.7979,51.79700,0.0026439,0.96643877,4.5734,09/21.0/2024,2000,g 21.0,2.0
# From MPEC 2020-HN5
C/2020 B2 (Lemmon),e,55.7524,354.2370,143.5971,67.70666,0.0017691,0.95928048,3.0058,09/21.0/2024,2000,g 10.0,4.0
# From MPEC 2022-N37
C/2020 B3 (Rankin),e,20.7075,185.7986,324.8886,972.3607,0.0000325,0.99657578,0.0000,10/20.1203/2019,2000,g 13.0,4.0
# From MPEC 2023-KD6
P/2020 B4 (Sheppard),e,11.6057,185.9668,341.9874,7.969677,0.0438069,0.19243395,45.4612,09/21.0/2024,2000,g 10.5,4.0
# From MPEC 2024-PC5
C/2020 F2 (ATLAS),h,07/13.3724/2022,163.5896,250.3042,48.2697,1.003920,8.814342,2000,4.5,4.0
# From MPEC 2021-O56
C/2020 F3 (NEOWISE),e,129.1538,61.0972,37.3853,388.7516,0.0001286,0.99924226,0.0000,07/04.4282/2020,2000,g  7.5,5.2
# From MPEC 2024-BE0
C/2020 F5 (MASTER),e,52.2170,350.5149,310.6615,167.7535,0.0004536,0.97420688,0.0000,03/16.6880/2021,2000,g  6.5,3.2
# From MPEC 2020-L06
C/2020 F6 (PANSTARRS),e,174.5834,207.8768,344.4128,363.3513,0.0001423,0.99036883,0.0000,04/11.1124/2020,2000,g 14.5,2.8
# From MPEC 2024-A43
C/2020 F7 (Lemmon),e,93.9665,321.8396,227.9578,554.6673,0.0000754,0.99038472,0.0000,11/13.6465/2021,2000,g  7.0,4.0
# From MPEC 2023-J29
C/2020 F8 (SWAN),h,05/26.4897/2020,110.5584,259.8049,68.0791,1.000107,0.430945,2000,10.0,4.0
# From MPEC 2020-L06
P/2020 G1 (Pimentel),e,18.5116,240.1108,207.6241,3.607343,0.1438543,0.86075086,236.9785,09/21.0/2024,2000,g 17.0,4.0
# From MPEC 2022-YB4
C/2020 H2 (Pruyne),e,124.8079,277.6714,26.6099,182.0942,0.0004011,0.99544705,0.0000,04/27.4763/2020,2000,g 14.0,3.2
# From MPEC 2020-HM1
C/2020 H3 (Wierzchos),p,06/05.7162/2020,62.5292,30.4456,2.300288,270.6227,2000,13.5,4.0
# From MPEC 2020-L06
C/2020 H4 (Leonard),e,84.4951,307.5326,117.5355,47.81872,0.0029806,0.98064859,0.0000,08/29.5004/2020,2000,g 15.0,3.2
# From MPEC 2024-P23
C/2020 H5 (Robinson),e,70.2465,210.6241,326.2806,4947,0.0000028,0.99811253,0.0000,12/10.0191/2020,2000,g  5.0,4.0
# From MPEC 2024-JU4
C/2020 H6 (ATLAS),e,79.9801,213.7117,20.2296,2582,0.0000075,0.99817988,0.0000,09/29.9637/2021,2000,g  8.0,3.2
# From MPEC 2020-KB7
C/2020 H7 (Lemmon),e,135.9235,323.5194,82.6780,1405,0.0000187,0.99685380,0.0000,06/02.9510/2020,2000,g 11.0,4.0
# From MPEC 2021-N06
